{
  "type": "FeatureCollection",
  "features": [
    {
      "type": "Feature",
      "properties": {
        "norad_id": 35022,
        "name": "COSMOS 2251 DEB",
        "group": "cosmos-2251-debris",
        "lat": 55.77511439724921,
        "lon": 125.63413248703323,
        "alt_km": 663.8632806196338,
        "timestamp": "2025-12-08T05:48:09.429428+00:00",
        "meta_object_name": "COSMOS 2251 DEB",
        "meta_object_id": "1993-036AGK",
        "meta_epoch": "2025-12-02T17:45:34.658208",
        "meta_mean_motion": 14.60763876,
        "meta_eccentricity": 0.00472905,
        "meta_inclination": 74.0262,
        "meta_ra_of_asc_node": 341.0512,
        "meta_arg_of_pericenter": 183.6288,
        "meta_mean_anomaly": 176.4543,
        "meta_ephemeris_type": 0,
        "meta_classification_type": "U",
        "meta_norad_cat_id": 35022,
        "meta_element_set_no": 999,
        "meta_rev_at_epoch": 58997,
        "meta_bstar": 0.00056913021,
        "meta_mean_motion_dot": 2.791e-05,
        "meta_mean_motion_ddot": 0,
        "tle_line1": "1 35022U 93036AGK 25336.73998447  .00002791  00000+0  56913-3 0  9998",
        "tle_line2": "2 35022  74.0262 341.0512 0047290 183.6288 176.4543 14.60763876589975"
      },
      "geometry": {
        "type": "Point",
        "coordinates": [
          125.63413248703323,
          55.77511439724921
        ]
      }
    },
    {
      "type": "Feature",
      "properties": {
        "norad_id": 35023,
        "name": "COSMOS 2251 DEB",
        "group": "cosmos-2251-debris",
        "lat": 69.31124824394261,
        "lon": -7.6252496956799085,
        "alt_km": 598.450703085221,
        "timestamp": "2025-12-08T05:48:09.429438+00:00",
        "meta_object_name": "COSMOS 2251 DEB",
        "meta_object_id": "1993-036AGL",
        "meta_epoch": "2025-12-07T22:59:06.245088",
        "meta_mean_motion": 14.94868746,
        "meta_eccentricity": 0.00342365,
        "meta_inclination": 74.0379,
        "meta_ra_of_asc_node": 222.2285,
        "meta_arg_of_pericenter": 300.9067,
        "meta_mean_anomaly": 74.2193,
        "meta_ephemeris_type": 0,
        "meta_classification_type": "U",
        "meta_norad_cat_id": 35023,
        "meta_element_set_no": 999,
        "meta_rev_at_epoch": 88208,
        "meta_bstar": 0.0020304888,
        "meta_mean_motion_dot": 0.00022424,
        "meta_mean_motion_ddot": 0,
        "tle_line1": "1 35023U 93036AGL 25341.95771117  .00022424  00000+0  20305-2 0  9992",
        "tle_line2": "2 35023  74.0379 222.2285 0034236 300.9067  74.2193 14.94868746882080"
      },
      "geometry": {
        "type": "Point",
        "coordinates": [
          -7.6252496956799085,
          69.31124824394261
        ]
      }
    },
    {
      "type": "Feature",
      "properties": {
        "norad_id": 35025,
        "name": "COSMOS 2251 DEB",
        "group": "cosmos-2251-debris",
        "lat": 1.4491764859762954,
        "lon": -108.67809068420328,
        "alt_km": 713.1901331090285,
        "timestamp": "2025-12-08T05:48:09.429448+00:00",
        "meta_object_name": "COSMOS 2251 DEB",
        "meta_object_id": "1993-036AGN",
        "meta_epoch": "2025-12-07T15:57:01.553184",
        "meta_mean_motion": 14.72670595,
        "meta_eccentricity": 0.00849167,
        "meta_inclination": 73.9389,
        "meta_ra_of_asc_node": 72.8696,
        "meta_arg_of_pericenter": 346.8052,
        "meta_mean_anomaly": 13.0897,
        "meta_ephemeris_type": 0,
        "meta_classification_type": "U",
        "meta_norad_cat_id": 35025,
        "meta_element_set_no": 999,
        "meta_rev_at_epoch": 88568,
        "meta_bstar": 0.00064891452,
        "meta_mean_motion_dot": 4.346e-05,
        "meta_mean_motion_ddot": 0,
        "tle_line1": "1 35025U 93036AGN 25341.66460131  .00004346  00000+0  64891-3 0  9995",
        "tle_line2": "2 35025  73.9389  72.8696 0084916 346.8052  13.0897 14.72670595885689"
      },
      "geometry": {
        "type": "Point",
        "coordinates": [
          -108.67809068420328,
          1.4491764859762954
        ]
      }
    },
    {
      "type": "Feature",
      "properties": {
        "norad_id": 35026,
        "name": "COSMOS 2251 DEB",
        "group": "cosmos-2251-debris",
        "lat": -3.5899403951955184,
        "lon": -33.73401901547912,
        "alt_km": 712.0556298760484,
        "timestamp": "2025-12-08T05:48:09.429458+00:00",
        "meta_object_name": "COSMOS 2251 DEB",
        "meta_object_id": "1993-036AGP",
        "meta_epoch": "2025-12-07T08:39:39.055680",
        "meta_mean_motion": 14.53618214,
        "meta_eccentricity": 0.00822584,
        "meta_inclination": 74.0464,
        "meta_ra_of_asc_node": 328.9566,
        "meta_arg_of_pericenter": 83.9333,
        "meta_mean_anomaly": 345.4639,
        "meta_ephemeris_type": 0,
        "meta_classification_type": "U",
        "meta_norad_cat_id": 35026,
        "meta_element_set_no": 999,
        "meta_rev_at_epoch": 88065,
        "meta_bstar": 0.00012037639,
        "meta_mean_motion_dot": 4.97e-06,
        "meta_mean_motion_ddot": 0,
        "tle_line1": "1 35026U 93036AGP 25341.36086870  .00000497  00000+0  12038-3 0  9996",
        "tle_line2": "2 35026  74.0464 328.9566 0082258  83.9333 345.4639 14.53618214880652"
      },
      "geometry": {
        "type": "Point",
        "coordinates": [
          -33.73401901547912,
          -3.5899403951955184
        ]
      }
    },
    {
      "type": "Feature",
      "properties": {
        "norad_id": 35028,
        "name": "COSMOS 2251 DEB",
        "group": "cosmos-2251-debris",
        "lat": 58.362477150705956,
        "lon": -52.802179102898464,
        "alt_km": 640.585028391004,
        "timestamp": "2025-12-08T05:48:09.429468+00:00",
        "meta_object_name": "COSMOS 2251 DEB",
        "meta_object_id": "1993-036AGR",
        "meta_epoch": "2025-12-06T14:45:20.784960",
        "meta_mean_motion": 14.56559763,
        "meta_eccentricity": 0.00822588,
        "meta_inclination": 74.0381,
        "meta_ra_of_asc_node": 282.6027,
        "meta_arg_of_pericenter": 57.9846,
        "meta_mean_anomaly": 116.6366,
        "meta_ephemeris_type": 0,
        "meta_classification_type": "U",
        "meta_norad_cat_id": 35028,
        "meta_element_set_no": 999,
        "meta_rev_at_epoch": 88196,
        "meta_bstar": 0.00020909724,
        "meta_mean_motion_dot": 9.44e-06,
        "meta_mean_motion_ddot": 0,
        "tle_line1": "1 35028U 93036AGR 25340.61482390  .00000944  00000+0  20910-3 0  9997",
        "tle_line2": "2 35028  74.0381 282.6027 0082258  57.9846 116.6366 14.56559763881966"
      },
      "geometry": {
        "type": "Point",
        "coordinates": [
          -52.802179102898464,
          58.362477150705956
        ]
      }
    },
    {
      "type": "Feature",
      "properties": {
        "norad_id": 35031,
        "name": "COSMOS 2251 DEB",
        "group": "cosmos-2251-debris",
        "lat": -73.99793594789108,
        "lon": 173.9040841232835,
        "alt_km": 771.7730746053667,
        "timestamp": "2025-12-08T05:48:09.429478+00:00",
        "meta_object_name": "COSMOS 2251 DEB",
        "meta_object_id": "1993-036AGU",
        "meta_epoch": "2025-12-06T02:28:30.271296",
        "meta_mean_motion": 14.38280865,
        "meta_eccentricity": 0.00185684,
        "meta_inclination": 74.0385,
        "meta_ra_of_asc_node": 271.4894,
        "meta_arg_of_pericenter": 6.3258,
        "meta_mean_anomaly": 353.8127,
        "meta_ephemeris_type": 0,
        "meta_classification_type": "U",
        "meta_norad_cat_id": 35031,
        "meta_element_set_no": 999,
        "meta_rev_at_epoch": 65188,
        "meta_bstar": 0.00033805858,
        "meta_mean_motion_dot": 1.004e-05,
        "meta_mean_motion_ddot": 0,
        "tle_line1": "1 35031U 93036AGU 25340.10312814  .00001004  00000+0  33806-3 0  9994",
        "tle_line2": "2 35031  74.0385 271.4894 0018568   6.3258 353.8127 14.38280865651880"
      },
      "geometry": {
        "type": "Point",
        "coordinates": [
          173.9040841232835,
          -73.99793594789108
        ]
      }
    },
    {
      "type": "Feature",
      "properties": {
        "norad_id": 35032,
        "name": "COSMOS 2251 DEB",
        "group": "cosmos-2251-debris",
        "lat": 15.565333062939878,
        "lon": -168.68742145967968,
        "alt_km": 676.5104389449343,
        "timestamp": "2025-12-08T05:48:09.429488+00:00",
        "meta_object_name": "COSMOS 2251 DEB",
        "meta_object_id": "1993-036AGV",
        "meta_epoch": "2025-12-07T09:23:26.712096",
        "meta_mean_motion": 14.58656845,
        "meta_eccentricity": 0.0068723,
        "meta_inclination": 73.8515,
        "meta_ra_of_asc_node": 17.579,
        "meta_arg_of_pericenter": 229.7715,
        "meta_mean_anomaly": 150.3092,
        "meta_ephemeris_type": 0,
        "meta_classification_type": "U",
        "meta_norad_cat_id": 35032,
        "meta_element_set_no": 999,
        "meta_rev_at_epoch": 87596,
        "meta_bstar": 0.0014719876,
        "meta_mean_motion_dot": 7.063e-05,
        "meta_mean_motion_ddot": 0,
        "tle_line1": "1 35032U 93036AGV 25341.39128139  .00007063  00000+0  14720-2 0  9996",
        "tle_line2": "2 35032  73.8515  17.5790 0068723 229.7715 150.3092 14.58656845875969"
      },
      "geometry": {
        "type": "Point",
        "coordinates": [
          -168.68742145967968,
          15.565333062939878
        ]
      }
    }
  ]
}